{"type": "FeatureCollection", "features": [ {"type": "Feature", "properties": {"norad_id": 34792, "name": "COSMOS 2251 DEB", "group": "cosmos-2251-debris", "lat": 74.00426920823705, "lon": -120.78600785745758, "alt_km": 706.298872460452, "timestamp": "2025-12-24T03:53:30.042418+00:00", "meta": {"OBJECT_NAME": "COSMOS 2251 DEB", "OBJECT_ID": "1993-036AAV", "EPOCH": "2025-12-22T12:09:48.809088", "MEAN_MOTION": 14.5603138, "ECCENTRICITY": 0.0012406, "INCLINATION": 74.0175, "RA_OF_ASC_NODE": 151.1707, "ARG_OF_PERICENTER": 245.8522, "MEAN_ANOMALY": 171.2349, "EPHEMERIS_TYPE": 0, "CLASSIFICATION_TYPE": "U", "NORAD_CAT_ID": 34792, "ELEMENT_SET_NO": 999, "REV_AT_EPOCH": 87792, "BSTAR": 0.0010716, "MEAN_MOTION_DOT": 4.698e-05, "MEAN_MOTION_DDOT": 0}, "tle": {"line1": "1 34792U 93036AAV 25356.50681492  .00004698  00000+0  10716-2 0  9995", "line2": "2 34792  74.0175 151.1707 0012406 245.8522 171.2349 14.56031380877925"}}, "geometry": {"type": "Point", "coordinates": [-120.78600785745758, 74.00426920823705]}}, {"type": "Feature", "properties": {"norad_id": 34793, "name": "COSMOS 2251 DEB", "group": "cosmos-2251-debris", "lat": -52.94629277879123, "lon": 71.59786297999347, "alt_km": 798.9702665456562, "timestamp": "2025-12-24T03:53:30.042432+00:00", "meta": {"OBJECT_NAME": "COSMOS 2251 DEB", "OBJECT_ID": "1993-036AAW", "EPOCH": "2025-12-23T02:27:36.859680", "MEAN_MOTION": 14.38660159, "ECCENTRICITY": 0.00507477, "INCLINATION": 74.0019, "RA_OF_ASC_NODE": 231.2224, "ARG_OF_PERICENTER": 22.7008, "MEAN_ANOMALY": 127.8194, "EPHEMERIS_TYPE": 0, "CLASSIFICATION_TYPE": "U", "NORAD_CAT_ID": 34793, "ELEMENT_SET_NO": 999, "REV_AT_EPOCH": 87479, "BSTAR": 0.00021426461, "MEAN_MOTION_DOT": 6.4e-06, "MEAN_MOTION_DDOT": 0}, "tle": {"line1": "1 34793U 93036AAW 25357.10250995  .00000640  00000+0  21426-3 0  9997", "line2": "2 34793  74.0019 231.2224 0050747  22.7008 127.8194 14.38660159874797"}}, "geometry": {"type": "Point", "coordinates": [71.59786297999347, -52.94629277879123]}}, {"type": "Feature", "properties": {"norad_id": 34796, "name": "COSMOS 2251 DEB", "group": "cosmos-2251-debris", "lat": 23.79858687523275, "lon": -157.81507142579795, "alt_km": 728.6721072228538, "timestamp": "2025-12-24T03:53:30.042442+00:00", "meta": {"OBJECT_NAME": "COSMOS 2251 DEB", "OBJECT_ID": "1993-036AAZ", "EPOCH": "2025-12-23T00:18:17.864064", "MEAN_MOTION": 14.48734486, "ECCENTRICITY": 0.01002809, "INCLINATION": 74.0288, "RA_OF_ASC_NODE": 197.0834, "ARG_OF_PERICENTER": 296.9424, "MEAN_ANOMALY": 214.3814, "EPHEMERIS_TYPE": 0, "CLASSIFICATION_TYPE": "U", "NORAD_CAT_ID": 34796, "ELEMENT_SET_NO": 999, "REV_AT_EPOCH": 88176, "BSTAR": 0.00057151487, "MEAN_MOTION_DOT": 2.267e-05, "MEAN_MOTION_DDOT": 0}, "tle": {"line1": "1 34796U 93036AAZ 25357.01270676  .00002267  00000+0  57151-3 0  9999", "line2": "2 34796  74.0288 197.0834 0100280 296.9424 214.3814 14.48734486881761"}}, "geometry": {"type": "Point", "coordinates": [-157.81507142579795, 23.79858687523275]}}, {"type": "Feature", "properties": {"norad_id": 34797, "name": "COSMOS 2251 DEB", "group": "cosmos-2251-debris", "lat": -73.93517500093515, "lon": -15.081827786550974, "alt_km": 745.3804412849286, "timestamp": "2025-12-24T03:53:30.042452+00:00", "meta": {"OBJECT_NAME": "COSMOS 2251 DEB", "OBJECT_ID": "1993-036ABA", "EPOCH": "2025-12-22T12:22:54.757056", "MEAN_MOTION": 14.42950692, "ECCENTRICITY": 0.00710542, "INCLINATION": 73.9783, "RA_OF_ASC_NODE": 81.7691, "ARG_OF_PERICENTER": 193.6898, "MEAN_ANOMALY": 166.2334, "EPHEMERIS_TYPE": 0, "CLASSIFICATION_TYPE": "U", "NORAD_CAT_ID": 34797, "ELEMENT_SET_NO": 999, "REV_AT_EPOCH": 87556, "BSTAR": 0.0021692417, "MEAN_MOTION_DOT": 7.461e-05, "MEAN_MOTION_DDOT": 0}, "tle": {"line1": "1 34797U 93036ABA 25356.51591154  .00007461  00000+0  21692-2 0  9992", "line2": "2 34797  73.9783  81.7691 0071054 193.6898 166.2334 14.42950692875560"}}, "geometry": {"type": "Point", "coordinates": [-15.081827786550974, -73.93517500093515]}}, {"type": "Feature", "properties": {"norad_id": 34814, "name": "COSMOS 2251 DEB", "group": "cosmos-2251-debris", "lat": 5.5049286534196025, "lon": -54.14974299278159, "alt_km": 809.9532740641989, "timestamp": "2025-12-24T03:53:30.042462+00:00", "meta": {"OBJECT_NAME": "COSMOS 2251 DEB", "OBJECT_ID": "1993-036ABD", "EPOCH": "2025-12-23T04:46:16.254336", "MEAN_MOTION": 14.3693492, "ECCENTRICITY": 0.00554769, "INCLINATION": 73.8962, "RA_OF_ASC_NODE": 306.0405, "ARG_OF_PERICENTER": 193.3771, "MEAN_ANOMALY": 230.9861, "EPHEMERIS_TYPE": 0, "CLASSIFICATION_TYPE": "U", "NORAD_CAT_ID": 34814, "ELEMENT_SET_NO": 999, "REV_AT_EPOCH": 87483, "BSTAR": 0.00068608274, "MEAN_MOTION_DOT": 2.041e-05, "MEAN_MOTION_DDOT": 0}, "tle": {"line1": "1 34814U 93036ABD 25357.19879924  .00002041  00000+0  68608-3 0  9999", "line2": "2 34814  73.8962 306.0405 0055476 193.3771 230.9861 14.36934920874833"}}, "geometry": {"type": "Point", "coordinates": [-54.14974299278159, 5.5049286534196025]}}, {"type": "Feature", "properties": {"norad_id": 34815, "name": "COSMOS 2251 DEB", "group": "cosmos-2251-debris", "lat": 60.23531343128126, "lon": -110.60862976196283, "alt_km": 658.907229134963, "timestamp": "2025-12-24T03:53:30.042473+00:00", "meta": {"OBJECT_NAME": "COSMOS 2251 DEB", "OBJECT_ID": "1993-036ABE", "EPOCH": "2025-12-22T09:22:30.801792", "MEAN_MOTION": 14.78414271, "ECCENTRICITY": 0.0058798, "INCLINATION": 74.0438, "RA_OF_ASC_NODE": 222.8498, "ARG_OF_PERICENTER": 289.919, "MEAN_ANOMALY": 69.5657, "EPHEMERIS_TYPE": 0, "CLASSIFICATION_TYPE": "U", "NORAD_CAT_ID": 34815, "ELEMENT_SET_NO": 999, "REV_AT_EPOCH": 88770, "BSTAR": 0.00071538, "MEAN_MOTION_DOT": 5.334e-05, "MEAN_MOTION_DDOT": 0}, "tle": {"line1": "1 34815U 93036ABE 25356.39063428  .00005334  00000+0  71538-3 0  9999", "line2": "2 34815  74.0438 222.8498 0058798 289.9190  69.5657 14.78414271887706"}}, "geometry": {"type": "Point", "coordinates": [-110.60862976196283, 60.23531343128126]}}, {"type": "Feature", "properties": {"norad_id": 34816, "name": "COSMOS 2251 DEB", "group": "cosmos-2251-debris", "lat": 55.86866702689572, "lon": -80.75545782115404, "alt_km": 917.1836024012273, "timestamp": "2025-12-24T03:53:30.042483+00:00", "meta": {"OBJECT_NAME": "COSMOS 2251 DEB", "OBJECT_ID": "1993-036ABF", "EPOCH": "2025-12-23T09:55:18.528096", "MEAN_MOTION": 13.58351996, "ECCENTRICITY": 0.0373037, "INCLINATION": 73.8873, "RA_OF_ASC_NODE": 125.7065, "ARG_OF_PERICENTER": 188.3385, "MEAN_ANOMALY": 235.9284, "EPHEMERIS_TYPE": 0, "CLASSIFICATION_TYPE": "U", "NORAD_CAT_ID": 34816, "ELEMENT_SET_NO": 999, "REV_AT_EPOCH": 82928, "BSTAR": 0.0012647, "MEAN_MOTION_DOT": 1.426e-05, "MEAN_MOTION_DDOT": 0}, "tle": {"line1": "1 34816U 93036ABF 25357.41340889  .00001426  00000+0  12647-2 0  9996", "line2": "2 34816  73.8873 125.7065 0373037 188.3385 235.9284 13.58351996829287"}}, "geometry": {"type": "Point", "coordinates": [-80.75545782115404, 55.86866702689572]}}, {"type": "Feature", "properties": {"norad_id": 34818, "name": "COSMOS 2251 DEB", "group": "cosmos-2251-debris", "lat": 71.06842747933734, "lon": -27.492544413900976, "alt_km": 761.462706505311, "timestamp": "2025-12-24T03:53:30.042493+00:00", "meta": {"OBJECT_NAME": "COSMOS 2251 DEB", "OBJECT_ID": "1993-036ABH", "EPOCH": "2025-12-22T05:26:11.246784", "MEAN_MOTION": 14.36978109, "ECCENTRICITY": 0.00245976, "INCLINATION": 74.0363, "RA_OF_ASC_NODE": 279.4958, "ARG_OF_PERICENTER": 353.0026, "MEAN_ANOMALY": 157.1903, "EPHEMERIS_TYPE": 0, "CLASSIFICATION_TYPE": "U", "NORAD_CAT_ID": 34818, "ELEMENT_SET_NO": 999, "REV_AT_EPOCH": 87506, "BSTAR": 0.00018981942, "MEAN_MOTION_DOT": 5.38e-06, "MEAN_MOTION_DDOT": 0}, "tle": {"line1": "1 34818U 93036ABH 25356.22651906  .00000538  00000+0  18982-3 0  9993", "line2": "2 34818  74.0363 279.4958 0024597 353.0026 157.1903 14.36978109875069"}}, "geometry": {"type": "Point", "coordinates": [-27.492544413900976, 71.06842747933734]}}, {"type": "Feature", "properties": {"norad_id": 34819, "name": "COSMOS 2251 DEB", "group": "cosmos-2251-debris", "lat": 28.344159507754732, "lon": 129.59216139729432, "alt_km": 689.0383385813175, "timestamp": "2025-12-24T03:53:30.042504+00:00", "meta": {"OBJECT_NAME": "COSMOS 2251 DEB", "OBJECT_ID": "1993-036ABJ", "EPOCH": "2025-12-23T09:58:58.848096", "MEAN_MOTION": 14.64120016, "ECCENTRICITY": 0.0015355, "INCLINATION": 74.0191, "RA_OF_ASC_NODE": 122.1333, "ARG_OF_PERICENTER": 216.9697, "MEAN_ANOMALY": 201.2443, "EPHEMERIS_TYPE": 0, "CLASSIFICATION_TYPE": "U", "NORAD_CAT_ID": 34819, "ELEMENT_SET_NO": 999, "REV_AT_EPOCH": 88385, "BSTAR": 0.0015775, "MEAN_MOTION_DOT": 8.283e-05, "MEAN_MOTION_DDOT": 0}, "tle": {"line1": "1 34819U 93036ABJ 25357.41595889  .00008283  00000+0  15775-2 0  9994", "line2": "2 34819  74.0191 122.1333 0015355 216.9697 201.2443 14.64120016883856"}}, "geometry": {"type": "Point", "coordinates": [129.59216139729432, 28.344159507754732]}}, {"type": "Feature", "properties": {"norad_id": 34823, "name": "COSMOS 2251 DEB", "group": "cosmos-2251-debris", "lat": 57.938450556911064, "lon": 107.84048773518147, "alt_km": 722.0788387793809, "timestamp": "2025-12-24T03:53:30.042515+00:00", "meta": {"OBJECT_NAME": "COSMOS 2251 DEB", "OBJECT_ID": "1993-036ABN", "EPOCH": "2025-12-22T23:32:59.618976", "MEAN_MOTION": 14.54990022, "ECCENTRICITY": 0.01539908, "INCLINATION": 74.0418, "RA_OF_ASC_NODE": 82.8922, "ARG_OF_PERICENTER": 165.1039, "MEAN_ANOMALY": 195.4739, "EPHEMERIS_TYPE": 0, "CLASSIFICATION_TYPE": "U", "NORAD_CAT_ID": 34823, "ELEMENT_SET_NO": 999, "REV_AT_EPOCH": 88530, "BSTAR": 0.00056765995, "MEAN_MOTION_DOT": 2.835e-05, "MEAN_MOTION_DDOT": 0}, "tle": {"line1": "1 34823U 93036ABN 25356.98124559  .00002835  00000+0  56766-3 0  9995", "line2": "2 34823  74.0418  82.8922 0153990 165.1039 195.4739 14.54990022885307"}}, "geometry": {"type": "Point", "coordinates": [107.84048773518147, 57.938450556911064]}}]}